******************************************************************************* Revised : Jul 31, 2013                  Sun                                 10 PHYSICAL PROPERTIES (revised Jan 16, 2014):  GM (10^11 km^3/s^2)   = 1.3271244004193938  Mass (10^30 kg)   ~ 1.988544  Radius (photosphere)  = 6.963(10^5) km  Angular diam at 1 AU  = 1919.3"  Solar Radius (IAU)    = 6.955(10^5) km  Mean density          = 1.408 g/cm^3  Surface gravity       =  274.0 m/s^2    Moment of inertia     = 0.059  Escape velocity       =  617.7 km/s     Adopted sidereal per  = 25.38 d  Pole (RA,DEC in deg.) =  286.13,63.87   Obliquity to ecliptic = 7 deg 15'          Solar constant (1 AU) = 1367.6 W/m^2    Solar lumin.(erg/s)   =  3.846(10^33)  Mass-energy conv rate = 4.3(10^12 gm/s) Effective temp (K)    =  5778  Surf. temp (photosphr)= 6600 K (bottom) Surf. temp (photosphr)=  4400 K (top)  Photospheric depth    = ~400 km         Chromospheric depth   = ~2500 km  Sunspot cycle         = 11.4 yr         Cycle 22 sunspot min. =  1991 A.D.  Motn. rel to nrby strs= apex : RA=271 deg; DEC=+30 deg                          speed: 19.4 km/s = 0.0112 AU/day  Motn. rel to 2.73K BB = apex : l=264.7+-0.8; b=48.2+-0.5                          speed: 369 +-11 km/s*******************************************************************************  *******************************************************************************Ephemeris / WWW_USER Fri Oct 20 07:04:24 2017 Pasadena, USA      / Horizons    *******************************************************************************Target body name: Sun (10)                        {source: DE431mx}Center body name: Solar System Barycenter (0)     {source: DE431mx}Center-site name: BODY CENTER*******************************************************************************Start time      : A.D. 2017-Oct-20 00:00:00.0000 TDBStop  time      : A.D. 2017-Oct-21 00:00:00.0000 TDBStep-size       : 1440 minutes*******************************************************************************Center geodetic : 0.00000000,0.00000000,0.0000000 {E-lon(deg),Lat(deg),Alt(km)}Center cylindric: 0.00000000,0.00000000,0.0000000 {E-lon(deg),Dxy(km),Dz(km)}Center radii    : (undefined)                                                  Output units    : AU-D                                                         Output type     : GEOMETRIC cartesian statesOutput format   : 3 (position, velocity, LT, range, range-rate)Reference frame : ICRF/J2000.0                                                 Coordinate systm: Ecliptic and Mean Equinox of Reference Epoch                 *******************************************************************************JDTDB   X     Y     Z   VX    VY    VZ   LT    RG    RR*******************************************************************************$$SOE2458046.500000000 = A.D. 2017-Oct-20 00:00:00.0000 TDB  X = 2.208054875983525E-03 Y = 5.746280454272564E-03 Z =-1.299102546588019E-04 VX=-5.245593715780954E-06 VY= 5.482120330588081E-06 VZ= 1.232780722108486E-07 LT= 3.556149526977335E-05 RG= 6.157282035831642E-03 RR= 3.232469605986929E-062458047.500000000 = A.D. 2017-Oct-21 00:00:00.0000 TDB  X = 2.202804943560830E-03 Y = 5.751759945715078E-03 Z =-1.297868278837546E-04 VX=-5.254271564521465E-06 VY= 5.476856009796890E-06 VZ= 1.235752656755262E-07 LT= 3.558016339855679E-05 RG= 6.160514322132565E-03 RR= 3.232098192709030E-06$$EOE*******************************************************************************Coordinate system description:  Ecliptic and Mean Equinox of Reference Epoch    Reference epoch: J2000.0    XY-plane: plane of the Earth's orbit at the reference epoch              Note: obliquity of 84381.448 arcseconds wrt ICRF equator (IAU76)    X-axis  : out along ascending node of instantaneous plane of the Earth's              orbit and the Earth's mean equator at the reference epoch    Z-axis  : perpendicular to the xy-plane in the directional (+ or -) sense              of Earth's north pole at the reference epoch.  Symbol meaning [1 au= 149597870.700 km, 1 day= 86400.0 s]:    JDTDB    Julian Day Number, Barycentric Dynamical Time      X      X-component of position vector (au)                                     Y      Y-component of position vector (au)                                     Z      Z-component of position vector (au)                                     VX     X-component of velocity vector (au/day)                                 VY     Y-component of velocity vector (au/day)                                 VZ     Z-component of velocity vector (au/day)                                 LT     One-way down-leg Newtonian light-time (day)                             RG     Range; distance from coordinate center (au)                             RR     Range-rate; radial velocity wrt coord. center (au/day)            Geometric states/elements have no aberrations applied. Computations by ...     Solar System Dynamics Group, Horizons On-Line Ephemeris System     4800 Oak Grove Drive, Jet Propulsion Laboratory     Pasadena, CA  91109   USA     Information: http://ssd.jpl.nasa.gov/     Connect    : telnet://ssd.jpl.nasa.gov:6775  (via browser)                  http://ssd.jpl.nasa.gov/?horizons                  telnet ssd.jpl.nasa.gov 6775    (via command-line)     Author     : Jon.D.Giorgini@jpl.nasa.gov*******************************************************************************